{
  "type": "FeatureCollection",
  "features": [
    {
      "type": "Feature",
      "properties": {
        "norad_id": 35442,
        "name": "COSMOS 2251 DEB",
        "group": "cosmos-2251-debris",
        "lat": 41.709991311082675,
        "lon": 120.94808602400757,
        "alt_km": 611.0128460761025,
        "timestamp": "2025-12-09T04:51:47.887545+00:00",
        "meta_object_name": "COSMOS 2251 DEB",
        "meta_object_id": "1993-036AKL",
        "meta_epoch": "2025-12-07T15:27:31.650048",
        "meta_mean_motion": 14.84119587,
        "meta_eccentricity": 0.00041145,
        "meta_inclination": 74.0265,
        "meta_ra_of_asc_node": 109.2474,
        "meta_arg_of_pericenter": 111.4342,
        "meta_mean_anomaly": 248.7276,
        "meta_ephemeris_type": 0,
        "meta_classification_type": "U",
        "meta_norad_cat_id": 35442,
        "meta_element_set_no": 999,
        "meta_rev_at_epoch": 87277,
        "meta_bstar": 0.0046413266,
        "meta_mean_motion_dot": 0.00038955,
        "meta_mean_motion_ddot": 0,
        "tle_line1": "1 35442U 93036AKL 25341.64411632  .00038955  00000+0  46413-2 0  9990",
        "tle_line2": "2 35442  74.0265 109.2474 0004114 111.4342 248.7276 14.84119587872772"
      },
      "geometry": {
        "type": "Point",
        "coordinates": [
          120.94808602400757,
          41.709991311082675
        ]
      }
    },
    {
      "type": "Feature",
      "properties": {
        "norad_id": 35443,
        "name": "COSMOS 2251 DEB",
        "group": "cosmos-2251-debris",
        "lat": -69.60585044413803,
        "lon": -71.80494823405985,
        "alt_km": 633.7043653508435,
        "timestamp": "2025-12-09T04:51:47.887555+00:00",
        "meta_object_name": "COSMOS 2251 DEB",
        "meta_object_id": "1993-036AKM",
        "meta_epoch": "2025-12-08T06:44:44.274336",
        "meta_mean_motion": 14.96147372,
        "meta_eccentricity": 0.00733753,
        "meta_inclination": 73.988,
        "meta_ra_of_asc_node": 340.6328,
        "meta_arg_of_pericenter": 123.8306,
        "meta_mean_anomaly": 236.9892,
        "meta_ephemeris_type": 0,
        "meta_classification_type": "U",
        "meta_norad_cat_id": 35443,
        "meta_element_set_no": 999,
        "meta_rev_at_epoch": 86811,
        "meta_bstar": 0.0035457848,
        "meta_mean_motion_dot": 0.00042371,
        "meta_mean_motion_ddot": 0,
        "tle_line1": "1 35443U 93036AKM 25342.28106799  .00042371  00000+0  35458-2 0  9991",
        "tle_line2": "2 35443  73.9880 340.6328 0073375 123.8306 236.9892 14.96147372868117"
      },
      "geometry": {
        "type": "Point",
        "coordinates": [
          -71.80494823405985,
          -69.60585044413803
        ]
      }
    },
    {
      "type": "Feature",
      "properties": {
        "norad_id": 35445,
        "name": "COSMOS 2251 DEB",
        "group": "cosmos-2251-debris",
        "lat": 66.90651465851828,
        "lon": -11.088799736044031,
        "alt_km": 609.3741233294886,
        "timestamp": "2025-12-09T04:51:47.887565+00:00",
        "meta_object_name": "COSMOS 2251 DEB",
        "meta_object_id": "1993-036AKP",
        "meta_epoch": "2025-12-08T05:29:59.522496",
        "meta_mean_motion": 14.58996884,
        "meta_eccentricity": 0.01436419,
        "meta_inclination": 74.0379,
        "meta_ra_of_asc_node": 308.6026,
        "meta_arg_of_pericenter": 36.7325,
        "meta_mean_anomaly": 324.3579,
        "meta_ephemeris_type": 0,
        "meta_classification_type": "U",
        "meta_norad_cat_id": 35445,
        "meta_element_set_no": 999,
        "meta_rev_at_epoch": 87263,
        "meta_bstar": 0.0025418237,
        "meta_mean_motion_dot": 0.00013775,
        "meta_mean_motion_ddot": 0,
        "tle_line1": "1 35445U 93036AKP 25342.22916114  .00013775  00000+0  25418-2 0  9998",
        "tle_line2": "2 35445  74.0379 308.6026 0143641  36.7325 324.3579 14.58996884872634"
      },
      "geometry": {
        "type": "Point",
        "coordinates": [
          -11.088799736044031,
          66.90651465851828
        ]
      }
    },
    {
      "type": "Feature",
      "properties": {
        "norad_id": 35446,
        "name": "COSMOS 2251 DEB",
        "group": "cosmos-2251-debris",
        "lat": 13.380252754135903,
        "lon": 140.9708640792902,
        "alt_km": 703.3515313635626,
        "timestamp": "2025-12-09T04:51:47.887576+00:00",
        "meta_object_name": "COSMOS 2251 DEB",
        "meta_object_id": "1993-036AKQ",
        "meta_epoch": "2025-12-05T17:34:52.262112",
        "meta_mean_motion": 14.54618421,
        "meta_eccentricity": 0.00744002,
        "meta_inclination": 74.0466,
        "meta_ra_of_asc_node": 331.4309,
        "meta_arg_of_pericenter": 91.6694,
        "meta_mean_anomaly": 269.2992,
        "meta_ephemeris_type": 0,
        "meta_classification_type": "U",
        "meta_norad_cat_id": 35446,
        "meta_element_set_no": 999,
        "meta_rev_at_epoch": 87906,
        "meta_bstar": 0.00018901942,
        "meta_mean_motion_dot": 8.08e-06,
        "meta_mean_motion_ddot": 0,
        "tle_line1": "1 35446U 93036AKQ 25339.73254933  .00000808  00000+0  18902-3 0  9999",
        "tle_line2": "2 35446  74.0466 331.4309 0074400  91.6694 269.2992 14.54618421879069"
      },
      "geometry": {
        "type": "Point",
        "coordinates": [
          140.9708640792902,
          13.380252754135903
        ]
      }
    },
    {
      "type": "Feature",
      "properties": {
        "norad_id": 35448,
        "name": "COSMOS 2251 DEB",
        "group": "cosmos-2251-debris",
        "lat": 27.567580585491008,
        "lon": 104.92205397352029,
        "alt_km": 713.4418765197224,
        "timestamp": "2025-12-09T04:51:47.887587+00:00",
        "meta_object_name": "COSMOS 2251 DEB",
        "meta_object_id": "1993-036AKS",
        "meta_epoch": "2025-12-08T08:55:07.122144",
        "meta_mean_motion": 14.54200662,
        "meta_eccentricity": 0.00113673,
        "meta_inclination": 73.9041,
        "meta_ra_of_asc_node": 97.835,
        "meta_arg_of_pericenter": 278.6106,
        "meta_mean_anomaly": 81.3768,
        "meta_ephemeris_type": 0,
        "meta_classification_type": "U",
        "meta_norad_cat_id": 35448,
        "meta_element_set_no": 999,
        "meta_rev_at_epoch": 87271,
        "meta_bstar": 0.0016168374,
        "meta_mean_motion_dot": 6.829e-05,
        "meta_mean_motion_ddot": 0,
        "tle_line1": "1 35448U 93036AKS 25342.37161021  .00006829  00000+0  16168-2 0  9990",
        "tle_line2": "2 35448  73.9041  97.8350 0011367 278.6106  81.3768 14.54200662872718"
      },
      "geometry": {
        "type": "Point",
        "coordinates": [
          104.92205397352029,
          27.567580585491008
        ]
      }
    },
    {
      "type": "Feature",
      "properties": {
        "norad_id": 35451,
        "name": "COSMOS 2251 DEB",
        "group": "cosmos-2251-debris",
        "lat": 71.37837851804595,
        "lon": -128.50038983792808,
        "alt_km": 459.3790552967348,
        "timestamp": "2025-12-09T04:51:47.887597+00:00",
        "meta_object_name": "COSMOS 2251 DEB",
        "meta_object_id": "1993-036AKV",
        "meta_epoch": "2025-12-08T19:02:53.512224",
        "meta_mean_motion": 15.34973984,
        "meta_eccentricity": 0.0040466,
        "meta_inclination": 73.9316,
        "meta_ra_of_asc_node": 111.1885,
        "meta_arg_of_pericenter": 358.188,
        "meta_mean_anomaly": 1.9171,
        "meta_ephemeris_type": 0,
        "meta_classification_type": "U",
        "meta_norad_cat_id": 35451,
        "meta_element_set_no": 999,
        "meta_rev_at_epoch": 67345,
        "meta_bstar": 0.0018915,
        "meta_mean_motion_dot": 0.00066455,
        "meta_mean_motion_ddot": 0,
        "tle_line1": "1 35451U 93036AKV 25342.79367491  .00066455  00000+0  18915-2 0  9992",
        "tle_line2": "2 35451  73.9316 111.1885 0040466 358.1880   1.9171 15.34973984673454"
      },
      "geometry": {
        "type": "Point",
        "coordinates": [
          -128.50038983792808,
          71.37837851804595
        ]
      }
    },
    {
      "type": "Feature",
      "properties": {
        "norad_id": 35453,
        "name": "COSMOS 2251 DEB",
        "group": "cosmos-2251-debris",
        "lat": -65.10957525539582,
        "lon": -11.264989348572616,
        "alt_km": 801.6008456393356,
        "timestamp": "2025-12-09T04:51:47.887607+00:00",
        "meta_object_name": "COSMOS 2251 DEB",
        "meta_object_id": "1993-036AKX",
        "meta_epoch": "2025-12-02T12:53:58.122528",
        "meta_mean_motion": 14.3790654,
        "meta_eccentricity": 0.00680216,
        "meta_inclination": 74.0102,
        "meta_ra_of_asc_node": 39.1945,
        "meta_arg_of_pericenter": 175.6131,
        "meta_mean_anomaly": 184.5634,
        "meta_ephemeris_type": 0,
        "meta_classification_type": "U",
        "meta_norad_cat_id": 35453,
        "meta_element_set_no": 999,
        "meta_rev_at_epoch": 86072,
        "meta_bstar": 0.00098540606,
        "meta_mean_motion_dot": 3.03e-05,
        "meta_mean_motion_ddot": 0,
        "tle_line1": "1 35453U 93036AKX 25336.53747827  .00003030  00000+0  98541-3 0  9998",
        "tle_line2": "2 35453  74.0102  39.1945 0068021 175.6131 184.5634 14.37906540860721"
      },
      "geometry": {
        "type": "Point",
        "coordinates": [
          -11.264989348572616,
          -65.10957525539582
        ]
      }
    }
  ]
}